{
  "norad_id": 66450,
  "name": "STARLINK-35334",
  "history": [
    {
      "epoch": "2026-03-28T13:17:59.385120Z",
      "apogee_km": 484.32215596270635,
      "perigee_km": 481.59692841614833,
      "latitude_deg": -1.7220457318762935e-05,
      "longitude_deg": 142.56790326826103,
      "height_km": 482.67853196675276,
      "semi_major_axis_km": 6861.096542189427,
      "eccentricity": 0.0001986,
      "inclination_deg": 43.0016,
      "raan_deg": 168.0383,
      "arg_perigee_deg": 272.4546,
      "mean_anomaly_deg": 87.6078,
      "mean_motion_rev_day": 15.27609908
    },
    {
      "epoch": "2026-03-29T04:59:33.759168Z",
      "apogee_km": 483.6994623402161,
      "perigee_km": 482.32448808558274,
      "latitude_deg": 1.942872863854723e-05,
      "longitude_deg": -97.16556666555293,
      "height_km": 483.0388023320799,
      "semi_major_axis_km": 6861.148975212899,
      "eccentricity": 0.0001002,
      "inclination_deg": 42.9988,
      "raan_deg": 164.3425,
      "arg_perigee_deg": 248.6133,
      "mean_anomaly_deg": 111.4612,
      "mean_motion_rev_day": 15.27592397
    },
    {
      "epoch": "2026-03-30T04:31:55.093440Z",
      "apogee_km": 484.5667853119885,
      "perigee_km": 481.41917332267803,
      "latitude_deg": 1.4982327865085968e-05,
      "longitude_deg": -96.7573866257674,
      "height_km": 482.4629818458929,
      "semi_major_axis_km": 6861.129979317333,
      "eccentricity": 0.00022938,
      "inclination_deg": 43.0012,
      "raan_deg": 158.8063,
      "arg_perigee_deg": 281.2683,
      "mean_anomaly_deg": 78.7911,
      "mean_motion_rev_day": 15.27598741
    },
    {
      "epoch": "2026-03-30T13:56:51.107712Z",
      "apogee_km": 484.1681354305638,
      "perigee_km": 481.79171897165907,
      "latitude_deg": 3.1909483244065235e-06,
      "longitude_deg": 119.40932516368449,
      "height_km": 482.4275041385158,
      "semi_major_axis_km": 6861.116927201111,
      "eccentricity": 0.00017318,
      "inclination_deg": 43.004,
      "raan_deg": 156.5931,
      "arg_perigee_deg": 286.1161,
      "mean_anomaly_deg": 73.95,
      "mean_motion_rev_day": 15.276031
    },
    {
      "epoch": "2026-03-31T13:29:11.425920Z",
      "apogee_km": 484.14744687259554,
      "perigee_km": 481.770763181813,
      "latitude_deg": 2.9775295232290436e-05,
      "longitude_deg": 119.81868413755107,
      "height_km": 482.5518537355431,
      "semi_major_axis_km": 6861.0961050272035,
      "eccentricity": 0.0001732,
      "inclination_deg": 43.0036,
      "raan_deg": 151.0538,
      "arg_perigee_deg": 278.9379,
      "mean_anomaly_deg": 81.1277,
      "mean_motion_rev_day": 15.27610054
    },
    {
      "epoch": "2026-04-01T20:52:19.455168Z",
      "apogee_km": 484.28862153647697,
      "perigee_km": 481.7390178918722,
      "latitude_deg": 2.8378079310025265e-06,
      "longitude_deg": 0.35494260239393005,
      "height_km": 483.14121413149417,
      "semi_major_axis_km": 6861.150819714175,
      "eccentricity": 0.0001858,
      "inclination_deg": 43.0001,
      "raan_deg": 143.6625,
      "arg_perigee_deg": 254.0449,
      "mean_anomaly_deg": 106.0198,
      "mean_motion_rev_day": 15.27591781
    },
    {
      "epoch": "2026-04-02T20:24:39.190176Z",
      "apogee_km": 483.78127119733017,
      "perigee_km": 481.9809400464155,
      "latitude_deg": -4.325021978248067e-05,
      "longitude_deg": 0.7719602131258827,
      "height_km": 482.84591805516834,
      "semi_major_axis_km": 6861.018105621873,
      "eccentricity": 0.0001312,
      "inclination_deg": 42.9998,
      "raan_deg": 138.1285,
      "arg_perigee_deg": 257.9282,
      "mean_anomaly_deg": 102.1422,
      "mean_motion_rev_day": 15.27636104
    },
    {
      "epoch": "2026-04-02T20:24:39.191040Z",
      "apogee_km": 483.7815456380549,
      "perigee_km": 481.9806656056908,
      "latitude_deg": -4.017586416348669e-05,
      "longitude_deg": 0.771959881917218,
      "height_km": 482.84597544284753,
      "semi_major_axis_km": 6861.018105621873,
      "eccentricity": 0.00013124,
      "inclination_deg": 42.9998,
      "raan_deg": 138.1285,
      "arg_perigee_deg": 257.9282,
      "mean_anomaly_deg": 102.1422,
      "mean_motion_rev_day": 15.27636104
    },
    {
      "epoch": "2026-04-03T12:06:15.164352Z",
      "apogee_km": 484.14522498101724,
      "perigee_km": 482.35069835814284,
      "latitude_deg": 6.339850982886202e-06,
      "longitude_deg": 121.035518760804,
      "height_km": 482.683588656034,
      "semi_major_axis_km": 6861.38496166958,
      "eccentricity": 0.00013077,
      "inclination_deg": 43.0006,
      "raan_deg": 134.4364,
      "arg_perigee_deg": 292.3389,
      "mean_anomaly_deg": 67.7324,
      "mean_motion_rev_day": 15.27513589
    },
    {
      "epoch": "2026-04-04T11:38:37.089600Z",
      "apogee_km": 484.62446516567707,
      "perigee_km": 481.2722760752995,
      "latitude_deg": -2.5036641851099894e-05,
      "longitude_deg": 121.43909982739622,
      "height_km": 481.7987650302943,
      "semi_major_axis_km": 6861.085370620488,
      "eccentricity": 0.00024429,
      "inclination_deg": 43.0057,
      "raan_deg": 128.8981,
      "arg_perigee_deg": 303.6014,
      "mean_anomaly_deg": 56.4604,
      "mean_motion_rev_day": 15.27613639
    },
    {
      "epoch": "2026-04-05T11:10:56.989632Z",
      "apogee_km": 484.4659794463896,
      "perigee_km": 481.3352879741278,
      "latitude_deg": -1.6608563156102715e-05,
      "longitude_deg": 121.85168401377067,
      "height_km": 481.7903153178242,
      "semi_major_axis_km": 6861.037633710258,
      "eccentricity": 0.00022815,
      "inclination_deg": 43.0053,
      "raan_deg": 123.3603,
      "arg_perigee_deg": 304.5663,
      "mean_anomaly_deg": 55.4973,
      "mean_motion_rev_day": 15.27629582
    },
    {
      "epoch": "2026-04-05T19:01:43.859136Z",
      "apogee_km": 483.5400011791007,
      "perigee_km": 482.396941007617,
      "latitude_deg": 3.3024309176282965e-05,
      "longitude_deg": 1.9829085019830792,
      "height_km": 482.5102220897518,
      "semi_major_axis_km": 6861.105471093359,
      "eccentricity": 8.33e-05,
      "inclination_deg": 43.0007,
      "raan_deg": 121.509,
      "arg_perigee_deg": 294.2235,
      "mean_anomaly_deg": 65.853,
      "mean_motion_rev_day": 15.27606926
    },
    {
      "epoch": "2026-04-06T02:52:29.891424Z",
      "apogee_km": 483.7363378933878,
      "perigee_km": 482.03850878958747,
      "latitude_deg": 3.239785693481166e-05,
      "longitude_deg": -117.8756227385094,
      "height_km": 482.4475966286863,
      "semi_major_axis_km": 6861.024423341487,
      "eccentricity": 0.00012373,
      "inclination_deg": 43.0027,
      "raan_deg": 119.6645,
      "arg_perigee_deg": 284.788,
      "mean_anomaly_deg": 75.2835,
      "mean_motion_rev_day": 15.27633994
    },
    {
      "epoch": "2026-04-07T18:06:24.483456Z",
      "apogee_km": 483.9322775228675,
      "perigee_km": 482.21697461635085,
      "latitude_deg": 1.8963277854664947e-05,
      "longitude_deg": 2.803997686349204,
      "height_km": 482.90796533659557,
      "semi_major_axis_km": 6861.211626069609,
      "eccentricity": 0.000125,
      "inclination_deg": 43.0031,
      "raan_deg": 110.4328,
      "arg_perigee_deg": 266.2275,
      "mean_anomaly_deg": 93.8434,
      "mean_motion_rev_day": 15.27571474
    },
    {
      "epoch": "2026-04-08T01:57:11.601792Z",
      "apogee_km": 483.7417930519114,
      "perigee_km": 482.3706521983022,
      "latitude_deg": 3.3745989502986783e-06,
      "longitude_deg": -117.06158739885065,
      "height_km": 483.122859343255,
      "semi_major_axis_km": 6861.1932226251065,
      "eccentricity": 9.992e-05,
      "inclination_deg": 43.0025,
      "raan_deg": 108.5858,
      "arg_perigee_deg": 244.9641,
      "mean_anomaly_deg": 115.1107,
      "mean_motion_rev_day": 15.2757762
    }
  ]
}